TRANSPORTER-16 OBJECT Z
1 68439U 26067Z   26104.13911780  .00008661  00000+0  43169-3 0  9990
2 68439  97.4469  63.5552 0000595 344.0367  16.0848 15.17787042  2228
