{
  "norad_id": 68439,
  "name": "TRANSPORTER-16 OBJECT Z",
  "history": [
    {
      "epoch": "2026-04-14T03:20:19.777920Z",
      "apogee_km": 512.9402837936041,
      "perigee_km": 512.1202943862017,
      "latitude_deg": 1.1231348662759835e-05,
      "longitude_deg": 171.15295633097062,
      "height_km": 515.2224068947546,
      "semi_major_axis_km": 6890.667289089903,
      "eccentricity": 5.95e-05,
      "inclination_deg": 97.4469,
      "raan_deg": 63.5552,
      "arg_perigee_deg": 344.0367,
      "mean_anomaly_deg": 16.0848,
      "mean_motion_rev_day": 15.17787042
    }
  ]
}